NORAD_CAT_ID,OBJECT_NAME,OBJECT_TYPE,EPOCH,MEAN_MOTION,ECCENTRICITY,INCLINATION,RA_OF_ASC_NODE,ARG_OF_PERICENTER,MEAN_ANOMALY,BSTAR,MEAN_MOTION_DOT,MEAN_MOTION_DDOT,TLE_LINE0,TLE_LINE1,TLE_LINE2,SEMIMAJOR_AXIS,PERIOD,APOGEE,PERIGEE,DECAYED
52367.0,STARLINK-3817,PAYLOAD,2022-05-15 14:00:01,15.73196237,0.000113,53.2132,358.5588,119.2788,239.6464,0.00021187,0.00029213,0.0,0 STARLINK-3817,1 52367U 22045AN  22135.58335648  .00029213  00000-0  21187-3 0  9990,2 52367  53.2132 358.5588 0001130 119.2788 239.6464 15.73196237  5018,6727.906,91.533,350.531,349.011,0.0
52367.0,STARLINK-3817,PAYLOAD,2022-05-15 22:00:00,15.73184883,9.65e-05,53.214,356.9115,106.2314,341.552,9.8792e-05,0.00013258,0.0,0 STARLINK-3817,1 52367U 22045AN  22135.91667824  .00013258  00000-0  98792-4 0  9990,2 52367  53.2140 356.9115 0000965 106.2314 341.5520 15.73184883  5077,6727.938,91.534,350.45300000000015,349.154,0.0
52367.0,STARLINK-3817,PAYLOAD,2022-05-16 12:00:00,15.73166726,0.0001286999999999,53.2141,354.0225,109.7827,43.5911,-1.9097e-05,-3.295e-05,0.0,0 STARLINK-3817,1 52367U 22045AN  22136.50001157 -.00003295  00000-0 -19097-4 0  9990,2 52367  53.2141 354.0225 0001287 109.7827  43.5911 15.73166726  5163,6727.99,91.535,350.721,348.98900000000015,0.0
52367.0,STARLINK-3817,PAYLOAD,2022-05-16 14:00:01,15.73166779,0.000136,53.2143,353.6101,109.1124,156.4836,-1.1474e-06,-7.8e-06,0.0,0 STARLINK-3817,1 52367U 22045AN  22136.58334491 -.00000780  00000-0 -11474-5 0  9996,2 52367  53.2143 353.6101 0001360 109.1124 156.4836 15.73166779  1309,6727.99,91.535,350.77,348.94,0.0
52367.0,STARLINK-3817,PAYLOAD,2022-05-16 20:00:01,15.7318,0.0001299,53.214,352.3745,101.1378,141.1494,0.00033835,0.00047091,0.0,0 STARLINK-3817,1 52367U 22045AN  22136.83334491  .00047091  00000-0  33835-3 0  9991,2 52367  53.2140 352.3745 0001299 101.1378 141.1494 15.73180000  5218,6727.9519999999975,91.534,350.691,348.9430000000001,0.0
52367.0,STARLINK-3817,PAYLOAD,2022-05-16 22:00:00,15.73194968,0.0001274,53.214,351.9625,98.7134,255.799,0.00022487,0.00031049,0.0,0 STARLINK-3817,1 52367U 22045AN  22136.91667824  .00031049  00000-0  22487-3 0  9996,2 52367  53.2140 351.9625 0001274  98.7134 255.7990 15.73194968  1301,6727.91,91.533,350.63199999999995,348.917,0.0
52367.0,STARLINK-3817,PAYLOAD,2022-05-17 06:00:00,15.73207198,0.0001029,53.2134,350.3118,107.1037,336.3436,-9.9526e-05,-0.00014567,0.0,0 STARLINK-3817,1 52367U 22045AN  22137.25001157 -.00014567  00000-0 -99526-4 0  9992,2 52367  53.2134 350.3118 0001029 107.1037 336.3436 15.73207198  5281,6727.875,91.533,350.432,349.047,0.0
52367.0,STARLINK-3817,PAYLOAD,2022-05-17 14:00:01,15.73217799,0.0001118,53.2137,348.6611,117.277,55.1475,-0.0001823,-0.00026144,0.0,0 STARLINK-3817,1 52367U 22045AN  22137.58335648 -.00026144  00000-0 -18230-3 0  9999,2 52367  53.2137 348.6611 0001118 117.2770  55.1475 15.73217799  1303,6727.844,91.532,350.462,348.957,0.0
52367.0,STARLINK-3817,PAYLOAD,2022-05-17 22:00:01,15.73200885,9.42e-05,53.2137,347.0136,103.5773,157.8092,-0.00028655,-0.00040641,0.0,0 STARLINK-3817,1 52367U 22045AN  22137.91668981 -.00040641  00000-0 -28655-3 0  9995,2 52367  53.2137 347.0136 0000942 103.5773 157.8092 15.73200885  1306,6727.893,91.533,350.391,349.124,0.0
52367.0,STARLINK-3817,PAYLOAD,2022-05-18 06:00:00,15.73211403,7.43e-05,53.2139,345.3627,110.6282,239.6205,0.00023123,0.00031971,0.0,0 STARLINK-3817,1 52367U 22045AN  22138.25001157  .00031971  00000-0  23123-3 0  9998,2 52367  53.2139 345.3627 0000743 110.6282 239.6205 15.73211403  5438,6727.863,91.533,350.228,349.228,0.0
52367.0,STARLINK-3817,PAYLOAD,2022-05-18 14:00:01,15.73246003,0.0001023,53.2143,343.7119,111.372,327.8238,-0.00037162,-0.0005255,0.0,0 STARLINK-3817,1 52367U 22045AN  22138.58334491 -.00052550  00000-0 -37162-3 0  9990,2 52367  53.2143 343.7119 0001023 111.3720 327.8238 15.73246003  1300,6727.764,91.531,350.31699999999995,348.941,0.0
52367.0,STARLINK-3817,PAYLOAD,2022-05-18 20:00:01,15.73229127,0.0001026,53.214,342.4764,98.6602,317.2592,-0.00072052,-0.00100661,0.0,0 STARLINK-3817,1 52367U 22045AN  22138.83334491 -.00100661  00000-0 -72052-3 0  9992,2 52367  53.2140 342.4764 0001026  98.6602 317.2592 15.73229127  5531,6727.812,91.531,350.367,348.987,0.0
52367.0,STARLINK-3817,PAYLOAD,2022-05-18 22:00:00,15.73189387,0.0001019,53.2141,342.0643,94.7213,73.4421,-0.00030755,-0.00043538,0.0,0 STARLINK-3817,1 52367U 22045AN  22138.91667824 -.00043538  00000-0 -30755-3 0  9993,2 52367  53.2141 342.0643 0001019  94.7213  73.4421 15.73189387  1307,6727.925,91.534,350.476,349.105,0.0
52367.0,STARLINK-3817,PAYLOAD,2022-05-19 06:00:00,15.73170541,8.87e-05,53.2135,340.4134,105.589,151.4708,0.00018323,0.0002514,0.0,0 STARLINK-3817,1 52367U 22045AN  22139.25001157  .00025140  00000-0  18323-3 0  9996,2 52367  53.2135 340.4134 0000887 105.5890 151.4708 15.73170541  5593,6727.979,91.535,350.441,349.247,0.0
52367.0,STARLINK-3817,PAYLOAD,2022-05-19 14:00:01,15.73191841,0.0001056,53.2139,338.7631,111.4525,234.5683,-1.7590999999999998e-05,-3.086e-05,0.0,0 STARLINK-3817,1 52367U 22045AN  22139.58335648 -.00003086  00000-0 -17591-4 0  9991,2 52367  53.2139 338.7631 0001056 111.4525 234.5683 15.73191841  1305,6727.918000000002,91.534,350.494,349.0730000000001,0.0
52367.0,STARLINK-3817,PAYLOAD,2022-05-19 22:00:00,15.73212263,0.0001053,53.214,337.1157,94.6479,340.2337,8.651399999999999e-05,0.00011545,0.0,0 STARLINK-3817,1 52367U 22045AN  22139.91667824  .00011545  00000-0  86514-4 0  9990,2 52367  53.2140 337.1157 0001053  94.6479 340.2337 15.73212263  1303,6727.86,91.532,350.434,349.017,0.0
52367.0,STARLINK-3817,PAYLOAD,2022-05-20 06:00:00,15.73418105,9.38e-05,53.2157,335.4643,98.1889,65.624,-0.0048023999999999,-0.00632083,0.0,0 STARLINK-3817,1 52367U 22045AN  22140.25001157 -.00632083  00000-0 -48024-2 0  9990,2 52367  53.2157 335.4643 0000938  98.1889  65.6240 15.73418105  5754,6727.273,91.52,349.769,348.50699999999995,0.0
52367.0,STARLINK-3817,PAYLOAD,2022-05-20 14:00:01,15.73232415,0.0001031,53.2145,333.8142,104.8208,147.9793,-0.00028366,-0.00040293,0.0,0 STARLINK-3817,1 52367U 22045AN  22140.58334491 -.00040293  00000-0 -28366-3 0  9990,2 52367  53.2145 333.8142 0001031 104.8208 147.9793 15.73232415  5803,6727.803000000001,91.531,350.361,348.974,0.0
52367.0,STARLINK-3817,PAYLOAD,2022-05-20 22:00:00,15.73166896,0.0001078,53.2143,332.1666,85.5109,256.2581,0.0006607,0.00093004,0.0,0 STARLINK-3817,1 52367U 22045AN  22140.91667824  .00093004  00000-0  66070-3 0  9996,2 52367  53.2143 332.1666 0001078  85.5109 256.2581 15.73166896  1309,6727.99,91.535,350.58,349.129,0.0
52367.0,STARLINK-3817,PAYLOAD,2022-05-21 06:00:00,15.73231044,0.0001054,53.2139,330.5154,96.066,334.6292,-0.0003061,-0.00043413,0.0,0 STARLINK-3817,1 52367U 22045AN  22141.25001157 -.00043413  00000-0 -30610-3 0  9997,2 52367  53.2139 330.5154 0001054  96.0660 334.6292 15.73231044  5910,6727.807,91.531,350.381,348.963,0.0
52367.0,STARLINK-3817,PAYLOAD,2022-05-21 14:00:01,15.73201219,0.0001076,53.2141,328.8656,100.6177,59.0847,0.0001315,0.00017875,0.0,0 STARLINK-3817,1 52367U 22045AN  22141.58335648  .00017875  00000-0  13150-3 0  9999,2 52367  53.2141 328.8656 0001076 100.6177  59.0847 15.73201219  1303,6727.892,91.533,350.481,349.033,0.0
52367.0,STARLINK-3817,PAYLOAD,2022-05-21 20:00:01,15.73207745,0.0001062,53.2139,327.6301,85.2113,51.1243,-8.819700000000001e-05,-0.00012982,0.0,0 STARLINK-3817,1 52367U 22045AN  22141.83334491 -.00012982  00000-0 -88197-4 0  9992,2 52367  53.2139 327.6301 0001062  85.2113  51.1243 15.73207745  6002,6727.873000000001,91.533,350.45300000000015,349.024,0.0
52367.0,STARLINK-3817,PAYLOAD,2022-05-21 22:00:00,15.73168349,0.0001103,53.2141,327.2181,81.7289,166.8519,0.00053396,0.00074886,0.0,0 STARLINK-3817,1 52367U 22045AN  22141.91667824  .00074886  00000-0  53396-3 0  9991,2 52367  53.2141 327.2181 0001103  81.7289 166.8519 15.73168349  1302,6727.985,91.535,350.593,349.108,0.0
52367.0,STARLINK-3817,PAYLOAD,2022-05-22 14:00:01,15.73214446,0.0001240999999999,53.2144,323.9170000000001,90.8757,335.5249,-0.00068086,-0.00095158,0.0,0 STARLINK-3817,1 52367U 22045AN  22142.58334491 -.00095158  00000-0 -68086-3 0  9995,2 52367  53.2144 323.9170 0001241  90.8757 335.5249 15.73214446  1305,6727.854,91.532,350.55400000000014,348.884,0.0
52367.0,STARLINK-3817,PAYLOAD,2022-05-22 22:00:01,15.73116504,0.0001240999999999,53.2142,322.2693,76.692,78.7185,0.00095855,0.00135612,0.0,0 STARLINK-3817,1 52367U 22045AN  22142.91668981  .00135612  00000-0  95855-3 0  9998,2 52367  53.2142 322.2693 0001241  76.6920  78.7185 15.73116504  6170,6728.1330000000025,91.538,350.833,349.163,0.0
52367.0,STARLINK-3817,PAYLOAD,2022-05-23 04:00:00,15.73200008,0.0001184,53.2137,321.0309,82.8291,49.1576,0.00026257,0.0003639,0.0,0 STARLINK-3817,1 52367U 22045AN  22143.16667824  .00036390  00000-0  26257-3 0  9994,2 52367  53.2137 321.0309 0001184  82.8291  49.1576 15.73200008  6215,6727.895,91.533,350.557,348.964,0.0
52367.0,STARLINK-3817,PAYLOAD,2022-05-23 14:00:01,15.73240411,0.0001045,53.2139,318.9687,88.1242,245.0279,-0.00058389,-0.0008191,0.0,0 STARLINK-3817,1 52367U 22045AN  22143.58334491 -.00081910  00000-0 -58389-3 0  9992,2 52367  53.2139 318.9687 0001045  88.1242 245.0279 15.73240411  1306,6727.78,91.531,350.348,348.94199999999995,0.0
52367.0,STARLINK-3817,PAYLOAD,2022-05-23 16:00:00,15.73233014,0.0001023,53.2137,318.557,81.63600000000002,3.756,-0.00067957,-0.00095053,0.0,0 STARLINK-3817,1 52367U 22045AN  22143.66667824 -.00095053  00000-0 -67957-3 0  9994,2 52367  53.2137 318.5570 0001023  81.6360   3.7560 15.73233014  6292,6727.801,91.531,350.35400000000016,348.978,0.0
52367.0,STARLINK-3817,PAYLOAD,2022-05-23 22:00:01,15.73146835,9.34e-05,53.2136,317.3209,70.3269,351.8451,0.00027714,0.00038364,0.0,0 STARLINK-3817,1 52367U 22045AN  22143.91668981  .00038364  00000-0  27714-3 0  9994,2 52367  53.2136 317.3209 0000934  70.3269 351.8451 15.73146835  1307,6728.047,91.536,350.54,349.283,0.0
